NORAD_CAT_ID,OBJECT_NAME,OBJECT_TYPE,EPOCH,MEAN_MOTION,ECCENTRICITY,INCLINATION,RA_OF_ASC_NODE,ARG_OF_PERICENTER,MEAN_ANOMALY,BSTAR,MEAN_MOTION_DOT,MEAN_MOTION_DDOT,TLE_LINE0,TLE_LINE1,TLE_LINE2,SEMIMAJOR_AXIS,PERIOD,APOGEE,PERIGEE,DECAYED
53973.0,STARLINK-5156,PAYLOAD,2024-06-21 04:33:23,15.08834972,0.0001374,53.2163,156.4676,88.8024,271.3126,5.0201e-06,-2.08e-06,0.0,0 STARLINK-5156,1 53973U 22125K   24173.18985660 -.00000208  00000-0  50201-5 0  9993,2 53973  53.2163 156.4676 0001374  88.8024 271.3126 15.08834972 94742,6917.896,95.438,540.711,538.81,0.0
53973.0,STARLINK-5156,PAYLOAD,2024-06-22 04:24:10,15.08834114,0.0001386,53.2165,152.0077,91.3247,268.7904,4.1227e-05,3.68e-06,0.0,0 STARLINK-5156,1 53973U 22125K   24174.18346046  .00000368  00000-0  41227-4 0  9996,2 53973  53.2165 152.0077 0001386  91.3247 268.7904 15.08834114 94966,6917.898,95.438,540.722,538.805,0.0
53973.0,STARLINK-5156,PAYLOAD,2024-06-22 05:59:34,15.08834889,0.0001392,53.2165,151.7104,91.4116,268.7035,4.6608e-05,4.54e-06,0.0,0 STARLINK-5156,1 53973U 22125K   24174.24970007  .00000454  00000-0  46608-4 0  9997,2 53973  53.2165 151.7104 0001392  91.4116 268.7035 15.08834889 94904,6917.896,95.438,540.724,538.798,0.0
53973.0,STARLINK-5156,PAYLOAD,2024-06-23 04:14:57,15.08840198,0.0001397,53.2163,147.5471,91.7398,268.3754,0.00012092,1.637e-05,0.0,0 STARLINK-5156,1 53973U 22125K   24175.17705662  .00001637  00000-0  12092-3 0  9996,2 53973  53.2163 147.5471 0001397  91.7398 268.3754 15.08840198 95110,6917.88,95.438,540.711,538.778,0.0
53973.0,STARLINK-5156,PAYLOAD,2024-06-23 07:25:43,15.08843735,0.0001429,53.2165,146.9521,92.8295,267.2861,0.00014363,1.999e-05,0.0,0 STARLINK-5156,1 53973U 22125K   24175.30953404  .00001999  00000-0  14363-3 0  9994,2 53973  53.2165 146.9521 0001429  92.8295 267.2861 15.08843735 95066,6917.869,95.437,540.723,538.745,0.0
53973.0,STARLINK-5156,PAYLOAD,2024-06-23 21:44:12,15.08844174,0.0001561,53.2172,144.2725,81.9102,278.2067,0.00010182,1.333e-05,0.0,0 STARLINK-5156,1 53973U 22125K   24175.90569507  .00001333  00000-0  10182-3 0  9994,2 53973  53.2172 144.2725 0001561  81.9102 278.2067 15.08844174 95152,6917.868,95.437,540.813,538.653,0.0
53973.0,STARLINK-5156,PAYLOAD,2024-06-24 07:16:31,15.08843181,0.0001526,53.2166,142.4908,89.4582,270.6585,9.4712e-05,1.22e-05,0.0,0 STARLINK-5156,1 53973U 22125K   24176.30313663  .00001220  00000-0  94712-4 0  9996,2 53973  53.2166 142.4908 0001526  89.4582 270.6585 15.08843181 95286,6917.871,95.437,540.791,538.68,0.0
53973.0,STARLINK-5156,PAYLOAD,2024-06-25 03:56:31,15.08843516,0.0001554,53.2167,138.6242,99.4743,260.6425,2.3566e-05,8.7e-07,0.0,0 STARLINK-5156,1 53973U 22125K   24177.16425630  .00000087  00000-0  23566-4 0  9998,2 53973  53.2167 138.6242 0001554  99.4743 260.6425 15.08843516 95347,6917.87,95.437,540.81,538.66,0.0
53973.0,STARLINK-5156,PAYLOAD,2024-06-26 03:47:18,15.08844887,0.0001465,53.2162,134.1633,101.7994,258.3163,5.0906e-05,5.22e-06,0.0,0 STARLINK-5156,1 53973U 22125K   24178.15785290  .00000522  00000-0  50906-4 0  9991,2 53973  53.2162 134.1633 0001465 101.7994 258.3163 15.08844887 95562,6917.865,95.437,540.744,538.717,0.0
53973.0,STARLINK-5156,PAYLOAD,2024-06-27 03:38:06,15.08836668,0.0001294,53.2148,129.7018,101.367,258.7467,1.334e-05,-7.6e-07,0.0,0 STARLINK-5156,1 53973U 22125K   24179.15146052 -.00000076  00000-0  13340-4 0  9995,2 53973  53.2148 129.7018 0001294 101.3670 258.7467 15.08836668 95716,6917.891,95.438,540.651,538.86,0.0
53973.0,STARLINK-5156,PAYLOAD,2024-06-27 13:10:25,15.08837455,0.000129,53.215,127.9207,99.784,260.3297,2.0525e-05,3.9e-07,0.0,0 STARLINK-5156,1 53973U 22125K   24179.54890109  .00000039  00000-0  20525-4 0  9998,2 53973  53.2150 127.9207 0001290  99.7840 260.3297 15.08837455 95708,6917.888,95.438,540.646,538.861,0.0
53973.0,STARLINK-5156,PAYLOAD,2024-06-28 13:01:12,15.08841803,0.0001287,53.2161,123.4628,95.477,264.6369,2.0769e-05,4.3e-07,0.0,0 STARLINK-5156,1 53973U 22125K   24180.54250119  .00000043  00000-0  20769-4 0  9996,2 53973  53.2161 123.4628 0001287  95.4770 264.6369 15.08841803 95922,6917.875,95.437,540.63,538.85,0.0
53973.0,STARLINK-5156,PAYLOAD,2024-06-29 12:51:59,15.08840465,0.0001247,53.2159,119.0027,89.452,270.6615,0.00010301,1.352e-05,0.0,0 STARLINK-5156,1 53973U 22125K   24181.53610196  .00001352  00000-0  10301-3 0  9995,2 53973  53.2159 119.0027 0001247  89.4520 270.6615 15.08840465 96009,6917.879,95.438,540.607,538.881,0.0
53973.0,STARLINK-5156,PAYLOAD,2024-06-30 04:45:51,15.08826065,0.0001111,53.2145,116.0285,107.035,253.0763,-0.00011127,-2.058e-05,0.0,0 STARLINK-5156,1 53973U 22125K   24182.19851423 -.00002058  00000-0 -11127-3 0  9991,2 53973  53.2145 116.0285 0001111 107.0350 253.0763 15.08826065 96172,6917.923,95.438,540.557,539.019,0.0
53973.0,STARLINK-5156,PAYLOAD,2024-06-30 12:42:47,15.08833226,0.0001277,53.2158,114.541,85.7327,274.3811,3.329e-05,2.42e-06,0.0,0 STARLINK-5156,1 53973U 22125K   24182.52971377  .00000242  00000-0  33290-4 0  9996,2 53973  53.2158 114.5410 0001277  85.7327 274.3811 15.08833226 96153,6917.901,95.438,540.65,538.883,0.0
53973.0,STARLINK-5156,PAYLOAD,2024-06-30 19:04:19,15.08835701,0.0001295,53.216,113.3514,89.0112,271.1029,8.2756e-05,1.029e-05,0.0,0 STARLINK-5156,1 53973U 22125K   24182.79467460  .00001029  00000-0  82756-4 0  9993,2 53973  53.2160 113.3514 0001295  89.0112 271.1029 15.08835701 96265,6917.894,95.438,540.654,538.863,0.0
53973.0,STARLINK-5156,PAYLOAD,2024-07-01 03:01:15,15.08864419,0.0001154,53.2147,111.8636,86.0682,274.0442,0.0014773,0.00023317,0.0,0 STARLINK-5156,1 53973U 22125K   24183.12587070  .00023317  00000-0  14773-2 0  9997,2 53973  53.2147 111.8636 0001154  86.0682 274.0442 15.08864419 96316,6917.806,95.436,540.469,538.872,0.0
53973.0,STARLINK-5156,PAYLOAD,2024-07-01 12:33:33,15.08861968,0.0001401,53.2143,110.0782,95.8258,264.2893,0.00076032,0.0001184,0.0,0 STARLINK-5156,1 53973U 22125K   24183.52330831  .00011840  00000-0  76032-3 0  9997,2 53973  53.2143 110.0782 0001401  95.8258 264.2893 15.08861968 96370,6917.813,95.436,540.647,538.709,0.0
53973.0,STARLINK-5156,PAYLOAD,2024-07-02 01:16:38,15.08845914,0.0001301,53.2159,107.697,117.3305,242.7819,-1.2187e-05,-4.82e-06,0.0,0 STARLINK-5156,1 53973U 22125K   24184.05322641 -.00000482  00000-0 -12187-4 0  9990,2 53973  53.2159 107.6970 0001301 117.3305 242.7819 15.08845914 96451,6917.862,95.437,540.627,538.827,0.0
53973.0,STARLINK-5156,PAYLOAD,2024-07-02 12:24:20,15.08849133,7.55e-05,53.2141,105.6179,94.842,265.2658,0.0002174,3.175e-05,0.0,0 STARLINK-5156,1 53973U 22125K   24184.51690560  .00003175  00000-0  21740-3 0  9993,2 53973  53.2141 105.6179 0000755  94.8420 265.2658 15.08849133 96458,6917.852,95.437,540.24,539.195,0.0
53973.0,STARLINK-5156,PAYLOAD,2024-07-02 21:56:39,15.08839738,0.000141,53.2131,103.833,100.1479,259.9673,0.00012814,1.752e-05,0.0,0 STARLINK-5156,1 53973U 22125K   24184.91435024  .00001752  00000-0  12814-3 0  9990,2 53973  53.2131 103.8330 0001410 100.1479 259.9673 15.08839738 96514,6917.881,95.438,540.722,538.771,0.0
53973.0,STARLINK-5156,PAYLOAD,2024-07-03 04:18:12,15.08846712,0.0001312,53.2159,102.6431,109.8888,250.2245,0.00024159,3.56e-05,0.0,0 STARLINK-5156,1 53973U 22125K   24185.17930825  .00003560  00000-0  24159-3 0  9992,2 53973  53.2159 102.6431 0001312 109.8888 250.2245 15.08846712 96625,6917.86,95.437,540.632,538.817,0.0
53973.0,STARLINK-5156,PAYLOAD,2024-07-03 21:47:26,15.08843249,0.0001327,53.216,99.3714,101.3231,258.791,9.54e-05,1.231e-05,0.0,0 STARLINK-5156,1 53973U 22125K   24185.90795138  .00001231  00000-0  95400-4 0  9990,2 53973  53.2160  99.3714 0001327 101.3231 258.7910 15.08843249 96666,6917.87,95.437,540.653,538.817,0.0
53973.0,STARLINK-5156,PAYLOAD,2024-07-04 00:58:13,15.08848508,0.0001356,53.2162,98.7747,95.8961,264.2186,0.00029946,4.482e-05,0.0,0 STARLINK-5156,1 53973U 22125K   24186.04043015  .00004482  00000-0  29946-3 0  9998,2 53973  53.2162  98.7747 0001356  95.8961 264.2186 15.08848508 96756,6917.854,95.437,540.657,538.781,0.0
53973.0,STARLINK-5156,PAYLOAD,2024-07-04 18:27:27,15.08841424,0.0001413,53.2162,95.5077,95.3455,264.7699,0.00012687,1.732e-05,0.0,0 STARLINK-5156,1 53973U 22125K   24186.76907181  .00001732  00000-0  12687-3 0  9999,2 53973  53.2162  95.5077 0001413  95.3455 264.7699 15.08841424 96860,6917.876,95.437,540.719,538.764,0.0
53973.0,STARLINK-5156,PAYLOAD,2024-07-04 23:13:37,15.08842845,0.0001374,53.2159,94.6158,94.6814,265.4335,0.00014752,2.061e-05,0.0,0 STARLINK-5156,1 53973U 22125K   24186.96779114  .00002061  00000-0  14752-3 0  9995,2 53973  53.2159  94.6158 0001374  94.6814 265.4335 15.08842845 96822,6917.872,95.437,540.687,538.786,0.0
53973.0,STARLINK-5156,PAYLOAD,2024-07-05 10:21:19,15.08843729,0.000126,53.2155,92.5314,69.6059,290.5069,0.00010586,1.397e-05,0.0,0 STARLINK-5156,1 53973U 22125K   24187.43147006  .00001397  00000-0  10586-3 0  9999,2 53973  53.2155  92.5314 0001260  69.6059 290.5069 15.08843729 96898,6917.869,95.437,540.606,538.862,0.0
53973.0,STARLINK-5156,PAYLOAD,2024-07-05 21:29:01,15.08837625,0.000126,53.2159,90.451,76.9923,283.121,-5.8762e-05,-1.223e-05,0.0,0 STARLINK-5156,1 53973U 22125K   24187.89515120 -.00001223  00000-0 -58762-4 0  9994,2 53973  53.2159  90.4510 0001260  76.9923 283.1210 15.08837625 96960,6917.888,95.438,540.624,538.881,0.0
53973.0,STARLINK-5156,PAYLOAD,2024-07-06 00:39:47,15.08842899,0.0001088,53.2157,89.8585,87.4598,272.6519,1.4434e-05,-5.8e-07,0.0,0 STARLINK-5156,1 53973U 22125K   24188.02762843 -.00000058  00000-0  14434-4 0  9998,2 53973  53.2157  89.8585 0001088  87.4598 272.6519 15.08842899 97050,6917.872,95.437,540.489,538.984,0.0
53973.0,STARLINK-5156,PAYLOAD,2024-07-06 10:12:05,15.08846804,0.0001158,53.2162,88.0746,87.2312,272.8813,7.4801e-05,9.03e-06,0.0,0 STARLINK-5156,1 53973U 22125K   24188.42506561  .00000903  00000-0  74801-4 0  9997,2 53973  53.2162  88.0746 0001158  87.2312 272.8813 15.08846804 97044,6917.86,95.437,540.526,538.924,0.0
